[{"OBJECT_NAME":"STARLINK-33738","OBJECT_ID":"2025-094AB","EPOCH":"2026-03-09T21:25:41.733696","MEAN_MOTION":14.98334264,"ECCENTRICITY":0.00030698,"INCLINATION":70.0018,"RA_OF_ASC_NODE":233.9123,"ARG_OF_PERICENTER":266.3856,"MEAN_ANOMALY":93.6952,"EPHEMERIS_TYPE":0,"CLASSIFICATION_TYPE":"U","NORAD_CAT_ID":63889,"ELEMENT_SET_NO":999,"REV_AT_EPOCH":4745,"BSTAR":0.000199935,"MEAN_MOTION_DOT":2.294e-5,"MEAN_MOTION_DDOT":0},{"OBJECT_NAME":"RAPIDEYE 1","OBJECT_ID":"2008-040C","EPOCH":"2026-03-09T15:08:44.758176","MEAN_MOTION":15.03049091,"ECCENTRICITY":0.0028174,"INCLINATION":97.4223,"RA_OF_ASC_NODE":100.7722,"ARG_OF_PERICENTER":157.1968,"MEAN_ANOMALY":203.0516,"EPHEMERIS_TYPE":0,"CLASSIFICATION_TYPE":"U","NORAD_CAT_ID":33314,"ELEMENT_SET_NO":999,"REV_AT_EPOCH":95070,"BSTAR":0.00023277,"MEAN_MOTION_DOT":3.104e-5,"MEAN_MOTION_DDOT":0}]
